#dP2020  4  7  0  0  0.00000000      96 __u+U ITR00 FIT  IAC
## 2100 172800.00000000   900.00000000 58946 0.0000000000000
+  118   C01C02C03C04C05C06C07C08C09C10C11C12C13C14C16C19C20
+        C21C22C23C24C25C26C27C28C29C30C32C33C34C35C36C37C43
+        C44E01E02E03E04E05E07E08E09E11E12E13E14E15E18E19E21
+        E24E25E26E27E30E31E33E36G01G02G03G04G05G06G07G08G09
+        G10G11G12G13G14G15G16G17G18G19G20G21G22G23G24G25G26
+        G27G28G29G30G31G32J01J02J03J07R01R02R03R04R05R07R08
+        R09R11R12R13R14R15R16R17R18R19R20R21R22R23R24R26  0
++        13 12 13 12 12  9  9  9  8  8  8  7  8  8  9  8  8
++         8  8  8  8  8  8  8  8  7  8  8  8  8  8  8  8 10
++         9  5  5  5  4  4  5  5  4  4  5  4  4  5  5  0  5
++         4  5  5  4  5  5  5  4  3  3  3  3  4  3  4  3  3
++         4  4  3  4  3  4  4  4  3  3  4  3  3  4  4  3  4
++         4  4  4  3  3  3  9  9  9 13  6  5  6  6  6  5  5
++         5  6  6  6  5  5  6  5  5  6  6  5  5  5  6  8  0
%c M  cc GPS ccc cccc cccc cccc cccc ccccc ccccc ccccc ccccc
%c cc cc ccc ccc cccc cccc cccc cccc ccccc ccccc ccccc ccccc
%f  0.0000000  0.000000000  0.00000000000  0.000000000000000
%f  0.0000000  0.000000000  0.00000000000  0.000000000000000
%i    0    0    0    0      0      0      0      0         0
%i    0    0    0    0      0      0      0      0         0
/* INFORMATION & ANALYSIS CENTER (IAC)            RAPID DATA
/* S/V CLOCKS ARE ALIGNED TO GNSS TIME                      
/* G:C1WC2W R:C1PC2P E:C1XC5X C:C2IC6I J:C1CC2S             
/* PCV:IGS14_2097 OL/AL:FES2004  NONE     YN ORB:CoN CLK:CoN
*  2020 04 07  4  0  0.00000000
PC01 -34364.195790  24459.715294    812.029046   -628.323479
PC02   4381.173593  41898.105760  -1243.291629    432.643462
PC03 -14699.099074  39489.751753   -814.533282    302.814205
PC04 -39634.304058  14411.416649    -37.987250   -162.799035
PC05  21898.723443  35992.311431   -908.405883   -251.245276
PC06 -16810.106615  37861.373822  -6107.483581    242.841493
PC07  -9900.699181  25759.321789  32148.815423    882.647922
PC08 -25036.779692  21967.447441 -25950.133193   -189.717068
PC09  -7848.637912  40244.276409   9200.722105    455.144030
PC10   4592.404152  32849.552764  26423.892810   -831.568054
PC11  -8941.738570 -13456.102837  22805.953883   -287.624091
PC12   6535.011398 -24272.286922  12134.067027    345.311380
PC13  -9560.989155  24596.761931 -32851.930610    367.322919
PC14 -16042.301139 -21952.405841  -6114.625355    272.802098
PC16 -14208.033798  39477.057943  -2836.831177   -690.807074
PC19  18831.008779  14855.404490  14309.963834    374.761194
PC20  11374.790316  25409.385580  -2139.130883   -921.037868
PC21   3225.824444 -21143.078942  17936.626086   -256.746922
PC22  15515.957486  -4490.246489  22768.837289   -843.954833
PC23 -25976.890177   4730.129086   9031.694897   -922.718123
PC24  -9714.618303 -15604.405709 -21013.620596   -868.231585
PC25 -25801.703030  -6827.304780  -8188.086555   -574.471164
PC26  10342.285920 -14721.560580 -21330.302634    634.822117
PC27 -13529.577932  24148.148845  -3456.002093    308.537319
PC28 -20415.853565  13240.931146  13666.966617    299.530381
PC29  15538.079075   4768.126973 -22690.188034    211.466245
PC30   1788.217999  20992.211007 -18287.027308    298.302009
PC32  -3009.942496  21212.783155 -17865.538914   -925.199612
PC33 -18884.079821 -14811.759348 -14210.808493   -879.178107
PC34  -2081.660777 -20793.839526  18503.808573   -611.665034
PC35  20004.311281 -13799.657942 -13750.967060   -903.415336
PC36  25516.643661   7570.645702   8413.296754   -821.461056
PC37 -11412.996042  14275.170061  21105.828702   -847.388869
PC43 -15446.367285  -5215.709549  22643.792487 999999.999999
PC44  12881.317998 -24564.361500   3250.027627   -158.949676
PE01  26063.583295   3686.620728 -13537.694942   -830.712927
PE02 -26048.614479  -3639.760496  13588.284444    124.707143
PE03 -17015.298569   2426.354292 -24096.155854   -285.182094
PE04  10673.485992 -22409.108800  16135.016145   -500.475841
PE05 -13455.595302 -19237.868058 -18021.734236   -390.757559
PE07   2074.803175  29496.568594   1483.614645   -364.747421
PE08 -10305.462624  22646.459426 -16038.821426   6195.917794
PE09  -2303.201829 -29460.841100  -1550.131322   6101.058466
PE11   3644.560278 -19520.964204  21957.580971   2135.499993
PE12  21380.973244 -19224.914994   7092.500033   5866.546491
PE13  -3841.602847  19540.966301 -21885.126354    399.865103
PE14   2435.802848 -24497.079473   6115.336822   -968.471007
PE15 -21181.063997  19343.220098  -7272.171460    871.340853
PE18   8043.684180  24228.075528 -18599.622633  -1066.903810
PE19  17005.899028     49.418600  24235.708323 999999.999999
PE21  24155.423100  16421.358610   4783.831503   -592.132878
PE24  -7759.387516 -19826.922176 -20589.001715   5520.435521
PE25 -24094.554173 -16482.367552  -4907.762107   -508.662908
PE26  16094.779786   8225.990190 -23433.364270   3331.114307
PE27   8027.765342  19754.334927  20524.494847    246.167982
PE30 -13072.583933  11260.528118  24039.729679   4006.154464
PE31  12730.164723 -11471.309614 -24133.268706   -472.208026
PE33  26095.121778  -7806.304444 -11595.425719   -468.687980
PE36 -15743.580050  -8285.198977  23664.193723    576.188361
PG01    278.884457  15226.605170 -21937.239078   -350.451209
PG02  20275.523189 -14576.471942   9587.693589   -435.187989
PG03   9914.200820  21412.054955 -12347.359221   -138.635738
PG04   1049.608340  24224.560249  10819.692479    -72.769623
PG05   9693.097562 -11913.949939  21529.909622    -10.422897
PG06  25651.424432  -6942.360328   -750.780099   -247.508293
PG07  18545.767256   7969.581343  17798.739044   -252.998323
PG08  -6187.484748  25682.493679    364.228426    -29.792325
PG09   9481.681247  16702.583407  18288.902231   -192.641451
PG10 -21726.062234  -8455.316292 -12853.034500   -302.247938
PG11  -7694.472404  21752.272934 -13902.450346   -312.294464
PG12  -6927.641166 -21715.339126 -14009.230182    132.091869
PG13  13213.224837 -22053.084471   6368.171048      0.135624
PG14 -16423.230151  10962.271366 -17332.394497    -21.245289
PG15   3137.990447 -26160.852420   -672.594379   -239.705859
PG16  -9717.744820  11172.158620  21809.641153   -143.724471
PG17  15080.523881   -594.240097 -21429.959677    244.701444
PG18 -13904.417054 -10697.318169  19955.787485    147.268766
PG19  16643.156373  -8755.694992 -19051.091794   -175.448641
PG20 -22223.885834 -14651.992538  -1831.368924    527.834005
PG21 -18733.575511  -6943.770603  18152.847838    -17.512771
PG22   2499.604498  19265.206802 -17942.615936   -785.052231
PG23   5110.370366  22291.005850  13559.262289   -124.041912
PG24   1076.361349 -16623.064633 -20816.683432    -11.361613
PG25 -16311.134229 -20588.423533  -5055.173100     -4.734457
PG26 -17754.268524   2962.114206  19565.025094    182.638280
PG27 -12325.123350  20827.359445  10406.507848   -259.951065
PG28  20245.218335   9141.806674 -13867.584580    727.275923
PG29  -6049.790462 -19015.362464  17479.349531    -75.031491
PG30  25089.579502    507.131504   9046.716624   -192.768925
PG31 -25679.362496   7596.842074   1245.861338    -34.406981
PG32 -15785.591344   1884.896768 -21180.427000    254.024967
PJ01 -18519.103424  25453.401278 -23462.310860   -328.710463
PJ02 -28491.649139  21181.685488  27584.443331     -2.253078
PJ03 -31793.158011  26041.411406  14430.038606     -1.759629
PJ07 -25406.252224  33637.100086    -30.995005      0.026350
PR01  12971.649780   9415.331021  19854.749607     59.646079
PR02   6743.369150 -12720.092944  21114.773066    420.566366
PR03  -2749.917579 -23932.232272   8504.348680     12.871596
PR04 -10591.871643 -21442.506027  -8844.075026     44.691573
PR05 -12364.097305  -6906.570483 -21206.036811     48.176144
PR07   3089.602526  24042.783485  -7838.923787    -35.179685
PR08  10648.613288  21397.184497   8952.621667    -51.490856
PR09 -13740.447053   6944.978328  20327.468178    125.934654
PR11  18830.973948  11113.575626  13182.362828    -19.329174
PR12  24898.797833   4541.384818  -3051.412785    120.466895
PR13  16892.127003  -5084.516811 -18445.599404    -37.042155
PR14  -1016.679609 -11487.625726 -22744.578432     49.907439
PR15 -18151.831861 -11275.155696 -13918.758465    106.288510
PR16 -25038.452454  -3815.376914   3520.249859     -2.624127
PR17   9917.206525 -19180.357179  13566.491953    315.354058
PR18  -3844.329446 -10789.922539  22814.715635     31.164989
PR19 -15522.887292   2730.724996  20056.652423    -87.464915
PR20 -19163.692888  16322.502147   3963.108846   -408.516857
PR21  -9358.132446  18943.334363 -14303.305574   -116.387403
PR22   6092.866669   8626.220510 -23206.045747    -20.939651
PR23  18168.161599  -8443.275452 -15800.277139    297.557881
PR24  18289.818793 -17741.938830  -1441.492742    -50.527469
PR26 -19324.410683  14423.149437   8364.276300   -400.388268
EOF
